[{"OBJECT_NAME":"STARLINK-31283","OBJECT_ID":"2024-044Y","EPOCH":"2024-07-17T22:00:00.999936","MEAN_MOTION":15.40702909,"ECCENTRICITY":0.0001556,"INCLINATION":43.0002,"RA_OF_ASC_NODE":235.4287,"ARG_OF_PERICENTER":252.6872,"MEAN_ANOMALY":177.6829,"EPHEMERIS_TYPE":0,"CLASSIFICATION_TYPE":"U","NORAD_CAT_ID":59174,"ELEMENT_SET_NO":999,"REV_AT_EPOCH":595,"BSTAR":-0.00069723,"MEAN_MOTION_DOT":-0.0002932,"MEAN_MOTION_DDOT":0},{"OBJECT_NAME":"STARLINK-31439","OBJECT_ID":"2024-045A","EPOCH":"2024-07-18T04:33:15.157728","MEAN_MOTION":15.40696577,"ECCENTRICITY":0.0001993,"INCLINATION":43.0007,"RA_OF_ASC_NODE":262.6137,"ARG_OF_PERICENTER":288.7366,"MEAN_ANOMALY":71.3274,"EPHEMERIS_TYPE":0,"CLASSIFICATION_TYPE":"U","NORAD_CAT_ID":59178,"ELEMENT_SET_NO":999,"REV_AT_EPOCH":2119,"BSTAR":1.081e-5,"MEAN_MOTION_DOT":1.48e-6,"MEAN_MOTION_DDOT":0},{"OBJECT_NAME":"STARLINK-31410","OBJECT_ID":"2024-045B","EPOCH":"2024-07-18T03:48:05.782464","MEAN_MOTION":15.40698379,"ECCENTRICITY":0.0001082,"INCLINATION":42.9976,"RA_OF_ASC_NODE":262.3643,"ARG_OF_PERICENTER":288.4646,"MEAN_ANOMALY":71.6093,"EPHEMERIS_TYPE":0,"CLASSIFICATION_TYPE":"U","NORAD_CAT_ID":59179,"ELEMENT_SET_NO":999,"REV_AT_EPOCH":2119,"BSTAR":3.2836e-5,"MEAN_MOTION_DOT":1.069e-5,"MEAN_MOTION_DDOT":0},{"OBJECT_NAME":"STARLINK-31395","OBJECT_ID":"2024-045C","EPOCH":"2024-07-17T15:05:08.084256","MEAN_MOTION":15.40694836,"ECCENTRICITY":0.0001743,"INCLINATION":43.0006,"RA_OF_ASC_NODE":265.2697,"ARG_OF_PERICENTER":257.661,"MEAN_ANOMALY":102.4051,"EPHEMERIS_TYPE":0,"CLASSIFICATION_TYPE":"U","NORAD_CAT_ID":59180,"ELEMENT_SET_NO":999,"REV_AT_EPOCH":2111,"BSTAR":1.4998e-5,"MEAN_MOTION_DOT":3.23e-6,"MEAN_MOTION_DDOT":0},{"OBJECT_NAME":"STARLINK-31486","OBJECT_ID":"2024-045D","EPOCH":"2024-07-18T04:26:48.403680","MEAN_MOTION":15.40697529,"ECCENTRICITY":0.0001306,"INCLINATION":42.9978,"RA_OF_ASC_NODE":262.5729,"ARG_OF_PERICENTER":274.6697,"MEAN_ANOMALY":85.401,"EPHEMERIS_TYPE":0,"CLASSIFICATION_TYPE":"U","NORAD_CAT_ID":59181,"ELEMENT_SET_NO":999,"REV_AT_EPOCH":2119,"BSTAR":-6.9773e-6,"MEAN_MOTION_DOT":-5.95e-6,"MEAN_MOTION_DDOT":0},{"OBJECT_NAME":"STARLINK-31411","OBJECT_ID":"2024-045E","EPOCH":"2024-07-17T11:10:15.440736","MEAN_MOTION":15.40673626,"ECCENTRICITY":0.0001423,"INCLINATION":42.998,"RA_OF_ASC_NODE":266.6295,"ARG_OF_PERICENTER":271.9643,"MEAN_ANOMALY":88.105,"EPHEMERIS_TYPE":0,"CLASSIFICATION_TYPE":"U","NORAD_CAT_ID":59182,"ELEMENT_SET_NO":999,"REV_AT_EPOCH":2108,"BSTAR":-0.00011752,"MEAN_MOTION_DOT":-5.205e-5,"MEAN_MOTION_DDOT":0},{"OBJECT_NAME":"STARLINK-31347","OBJECT_ID":"2024-045F","EPOCH":"2024-07-18T04:39:18.403200","MEAN_MOTION":15.40697884,"ECCENTRICITY":0.0001376,"INCLINATION":43.0001,"RA_OF_ASC_NODE":260.8841,"ARG_OF_PERICENTER":278.1073,"MEAN_ANOMALY":81.9627,"EPHEMERIS_TYPE":0,"CLASSIFICATION_TYPE":"U","NORAD_CAT_ID":59183,"ELEMENT_SET_NO":999,"REV_AT_EPOCH":2123,"BSTAR":4.3006e-5,"MEAN_MOTION_DOT":1.493e-5,"MEAN_MOTION_DDOT":0},{"OBJECT_NAME":"STARLINK-31382","OBJECT_ID":"2024-045G","EPOCH":"2024-07-18T03:41:38.357088","MEAN_MOTION":15.40689514,"ECCENTRICITY":0.0001222,"INCLINATION":42.9976,"RA_OF_ASC_NODE":262.3276,"ARG_OF_PERICENTER":246.4031,"MEAN_ANOMALY":113.6697,"EPHEMERIS_TYPE":0,"CLASSIFICATION_TYPE":"U","NORAD_CAT_ID":59184,"ELEMENT_SET_NO":999,"REV_AT_EPOCH":2119,"BSTAR":-2.8444e-5,"MEAN_MOTION_DOT":-1.491e-5,"MEAN_MOTION_DDOT":0},{"OBJECT_NAME":"STARLINK-31394","OBJECT_ID":"2024-045H","EPOCH":"2024-07-18T06:00:02.000160","MEAN_MOTION":15.45770374,"ECCENTRICITY":0.0004065,"INCLINATION":43.0046,"RA_OF_ASC_NODE":260.887,"ARG_OF_PERICENTER":46.3479,"MEAN_ANOMALY":148.3471,"EPHEMERIS_TYPE":0,"CLASSIFICATION_TYPE":"U","NORAD_CAT_ID":59185,"ELEMENT_SET_NO":999,"REV_AT_EPOCH":2121,"BSTAR":0.0017182,"MEAN_MOTION_DOT":0.00085832,"MEAN_MOTION_DDOT":0},{"OBJECT_NAME":"STARLINK-31403","OBJECT_ID":"2024-045J","EPOCH":"2024-07-18T03:57:06.150528","MEAN_MOTION":15.57874812,"ECCENTRICITY":0.0001343,"INCLINATION":42.9973,"RA_OF_ASC_NODE":249.2726,"ARG_OF_PERICENTER":292.0282,"MEAN_ANOMALY":68.0438,"EPHEMERIS_TYPE":0,"CLASSIFICATION_TYPE":"U","NORAD_CAT_ID":59186,"ELEMENT_SET_NO":999,"REV_AT_EPOCH":2124,"BSTAR":0.0011732,"MEAN_MOTION_DOT":0.00090554,"MEAN_MOTION_DDOT":0},{"OBJECT_NAME":"STARLINK-31514","OBJECT_ID":"2024-045K","EPOCH":"2024-07-17T15:18:02.108160","MEAN_MOTION":15.40697938,"ECCENTRICITY":0.0001899,"INCLINATION":42.9999,"RA_OF_ASC_NODE":265.3345,"ARG_OF_PERICENTER":262.0594,"MEAN_ANOMALY":98.0047,"EPHEMERIS_TYPE":0,"CLASSIFICATION_TYPE":"U","NORAD_CAT_ID":59187,"ELEMENT_SET_NO":999,"REV_AT_EPOCH":2111,"BSTAR":7.093e-5,"MEAN_MOTION_DOT":2.66e-5,"MEAN_MOTION_DDOT":0},{"OBJECT_NAME":"STARLINK-31478","OBJECT_ID":"2024-045L","EPOCH":"2024-07-18T04:22:01.966944","MEAN_MOTION":15.43155656,"ECCENTRICITY":8.2e-5,"INCLINATION":43.0013,"RA_OF_ASC_NODE":261.6779,"ARG_OF_PERICENTER":271.8956,"MEAN_ANOMALY":88.1807,"EPHEMERIS_TYPE":0,"CLASSIFICATION_TYPE":"U","NORAD_CAT_ID":59188,"ELEMENT_SET_NO":999,"REV_AT_EPOCH":2120,"BSTAR":0.00041996,"MEAN_MOTION_DOT":0.0001878,"MEAN_MOTION_DDOT":0},{"OBJECT_NAME":"STARLINK-31498","OBJECT_ID":"2024-045M","EPOCH":"2024-07-18T04:42:43.675776","MEAN_MOTION":15.4070492,"ECCENTRICITY":0.0001475,"INCLINATION":43.0014,"RA_OF_ASC_NODE":261.7861,"ARG_OF_PERICENTER":268.7566,"MEAN_ANOMALY":91.3122,"EPHEMERIS_TYPE":0,"CLASSIFICATION_TYPE":"U","NORAD_CAT_ID":59189,"ELEMENT_SET_NO":999,"REV_AT_EPOCH":2120,"BSTAR":-1.2264e-5,"MEAN_MOTION_DOT":-8.16e-6,"MEAN_MOTION_DDOT":0},{"OBJECT_NAME":"STARLINK-31563","OBJECT_ID":"2024-045N","EPOCH":"2024-07-17T11:03:48.214944","MEAN_MOTION":15.40668342,"ECCENTRICITY":0.0002118,"INCLINATION":42.9999,"RA_OF_ASC_NODE":266.5945,"ARG_OF_PERICENTER":274.8374,"MEAN_ANOMALY":85.2241,"EPHEMERIS_TYPE":0,"CLASSIFICATION_TYPE":"U","NORAD_CAT_ID":59190,"ELEMENT_SET_NO":999,"REV_AT_EPOCH":2108,"BSTAR":-5.692e-5,"MEAN_MOTION_DOT":-2.678e-5,"MEAN_MOTION_DDOT":0},{"OBJECT_NAME":"STARLINK-31551","OBJECT_ID":"2024-045P","EPOCH":"2024-07-17T11:07:00.927552","MEAN_MOTION":15.40663411,"ECCENTRICITY":0.0001206,"INCLINATION":43,"RA_OF_ASC_NODE":266.6127,"ARG_OF_PERICENTER":277.8455,"MEAN_ANOMALY":82.2264,"EPHEMERIS_TYPE":0,"CLASSIFICATION_TYPE":"U","NORAD_CAT_ID":59191,"ELEMENT_SET_NO":999,"REV_AT_EPOCH":2108,"BSTAR":-0.00031803,"MEAN_MOTION_DOT":-0.00013548,"MEAN_MOTION_DDOT":0},{"OBJECT_NAME":"STARLINK-31536","OBJECT_ID":"2024-045Q","EPOCH":"2024-07-18T06:00:02.000160","MEAN_MOTION":15.40665747,"ECCENTRICITY":0.0001221,"INCLINATION":43.0003,"RA_OF_ASC_NODE":261.1417,"ARG_OF_PERICENTER":262.3483,"MEAN_ANOMALY":172.6841,"EPHEMERIS_TYPE":0,"CLASSIFICATION_TYPE":"U","NORAD_CAT_ID":59192,"ELEMENT_SET_NO":999,"REV_AT_EPOCH":2121,"BSTAR":0.0006973,"MEAN_MOTION_DOT":0.00028901,"MEAN_MOTION_DDOT":0}]
