STARLINK-31283          
1 59174U 24044Y   24199.91667824 -.00029320  00000+0 -69723-3 0  9995
2 59174  43.0002 235.4287 0001556 252.6872 177.6829 15.40702909  5953
STARLINK-31439          
1 59178U 24045A   24200.18975877  .00000148  00000+0  10810-4 0  9991
2 59178  43.0007 262.6137 0001993 288.7366  71.3274 15.40696577 21192
STARLINK-31410          
1 59179U 24045B   24200.15840026  .00001069  00000+0  32836-4 0  9991
2 59179  42.9976 262.3643 0001082 288.4646  71.6093 15.40698379 21196
STARLINK-31395          
1 59180U 24045C   24199.62856579  .00000323  00000+0  14998-4 0  9993
2 59180  43.0006 265.2697 0001743 257.6610 102.4051 15.40694836 21111
STARLINK-31486          
1 59181U 24045D   24200.18528245 -.00000595  00000+0 -69773-5 0  9999
2 59181  42.9978 262.5729 0001306 274.6697  85.4010 15.40697529 21198
STARLINK-31411          
1 59182U 24045E   24199.46545649 -.00005205  00000+0 -11752-3 0  9990
2 59182  42.9980 266.6295 0001423 271.9643  88.1050 15.40673626 21080
STARLINK-31347          
1 59183U 24045F   24200.19396300  .00001493  00000+0  43006-4 0  9993
2 59183  43.0001 260.8841 0001376 278.1073  81.9627 15.40697884 21233
STARLINK-31382          
1 59184U 24045G   24200.15391617 -.00001491  00000+0 -28444-4 0  9995
2 59184  42.9976 262.3276 0001222 246.4031 113.6697 15.40689514 21190
STARLINK-31394          
1 59185U 24045H   24200.25002315  .00085832  00000+0  17182-2 0  9995
2 59185  43.0046 260.8870 0004065  46.3479 148.3471 15.45770374 21213
STARLINK-31403          
1 59186U 24045J   24200.16465452  .00090554  00000+0  11732-2 0  9993
2 59186  42.9973 249.2726 0001343 292.0282  68.0438 15.57874812 21249
STARLINK-31514          
1 59187U 24045K   24199.63752440  .00002660  00000+0  70930-4 0  9997
2 59187  42.9999 265.3345 0001899 262.0594  98.0047 15.40697938 21112
STARLINK-31478          
1 59188U 24045L   24200.18196721  .00018780  00000+0  41996-3 0  9994
2 59188  43.0013 261.6779 0000820 271.8956  88.1807 15.43155656 21208
STARLINK-31498          
1 59189U 24045M   24200.19633884 -.00000816  00000+0 -12264-4 0  9992
2 59189  43.0014 261.7861 0001475 268.7566  91.3122 15.40704920 21209
STARLINK-31563          
1 59190U 24045N   24199.46097471 -.00002678  00000+0 -56920-4 0  9992
2 59190  42.9999 266.5945 0002118 274.8374  85.2241 15.40668342 21084
STARLINK-31551          
1 59191U 24045P   24199.46320518 -.00013548  00000+0 -31803-3 0  9994
2 59191  43.0000 266.6127 0001206 277.8455  82.2264 15.40663411 21087
STARLINK-31536          
1 59192U 24045Q   24200.25002315  .00028901  00000+0  69730-3 0  9994
2 59192  43.0003 261.1417 0001221 262.3483 172.6841 15.40665747 21214
